- id: gps-22581
  name: NAVSTAR 31 (USA 90)
  allegiance: friendly
  components:
    - kind: space_orbit
      data:
        line1: "1 22581U 93017A   26086.13794971 -.00000026  00000+0  00000+0 0  9998"
        line2: "2 22581  54.2114 301.1071 0003005  92.7799  95.4021  1.88946726 87637"
        fov_half_angle_deg: 5.0
    - kind: symbol
      data:
        sidc_template:
          version: "10"
          context: reality
          standard_identity: friend
          symbol_set: space
          status: present
          hqtfd: not_applicable
          amplifier: unspecified
          entity: code_110700
          modifier_one: code_02
          modifier_two: code_00
